{
"type": "FeatureCollection",
"name": "Categories",
"crs": { "type": "name", "properties": { "name": "urn:ogc:def:crs:OGC:1.3:CRS84" } },
"features": [
{ "type": "Feature", "properties": { "Category Name": "Ancient Artifacts", "c_id": 2, "id": 1 }, "geometry": { "type": "Point", "coordinates": [ 787.300664626475509, 391.921127836909591 ] } },
{ "type": "Feature", "properties": { "Category Name": "Ancient Artifacts", "c_id": 2, "id": 2 }, "geometry": { "type": "Point", "coordinates": [ 872.846575620229714, 921.525995535739412 ] } },
{ "type": "Feature", "properties": { "Category Name": "Ancient Artifacts", "c_id": 2, "id": 3 }, "geometry": { "type": "Point", "coordinates": [ 577.011891774530795, 950.50979902062204 ] } },
{ "type": "Feature", "properties": { "Category Name": "Coins", "c_id": 1, "id": 4 }, "geometry": { "type": "Point", "coordinates": [ 79.528942897406225, 812.400177192950878 ] } },
{ "type": "Feature", "properties": { "Category Name": "Coins", "c_id": 1, "id": 5 }, "geometry": { "type": "Point", "coordinates": [ 871.491728434673519, 1076.890089929290525 ] } },
{ "type": "Feature", "properties": { "Category Name": "Traditional Arts", "c_id": 10, "id": 6 }, "geometry": { "type": "Point", "coordinates": [ 448.459663950203606, 880.160892767819632 ] } },
{ "type": "Feature", "properties": { "Category Name": "Traditional Arts", "c_id": 10, "id": 7 }, "geometry": { "type": "Point", "coordinates": [ 107.719551219551562, 923.878492137035437 ] } },
{ "type": "Feature", "properties": { "Category Name": "Traditional Arts", "c_id": 10, "id": 8 }, "geometry": { "type": "Point", "coordinates": [ 415.984891145453048, 533.531317357688863 ] } },
{ "type": "Feature", "properties": { "Category Name": "Architecture", "c_id": 9, "id": 9 }, "geometry": { "type": "Point", "coordinates": [ 351.02893870484013, 412.898834253693394 ] } },
{ "type": "Feature", "properties": { "Category Name": "Architecture", "c_id": 9, "id": 10 }, "geometry": { "type": "Point", "coordinates": [ 874.304836066092548, 735.734176505947744 ] } },
{ "type": "Feature", "properties": { "Category Name": "Kandy Era", "c_id": 3, "id": 11 }, "geometry": { "type": "Point", "coordinates": [ 528.234534774172403, 1076.218716053745766 ] } },
{ "type": "Feature", "properties": { "Category Name": "Kings & Royality", "c_id": 3, "id": 12 }, "geometry": { "type": "Point", "coordinates": [ 699.686128759232361, 808.235552346004965 ] } },
{ "type": "Feature", "properties": { "Category Name": "Kandy Era", "c_id": 3, "id": 13 }, "geometry": { "type": "Point", "coordinates": [ 606.036098431258438, 682.888588676255267 ] } },
{ "type": "Feature", "properties": { "Category Name": "Royal", "c_id": 3, "id": 14 }, "geometry": { "type": "Point", "coordinates": [ 108.970552844319968, 1020.028697856961344 ] } },
{ "type": "Feature", "properties": { "Category Name": "Culture", "c_id": 7, "id": 15 }, "geometry": { "type": "Point", "coordinates": [ 685.27843178569799, 459.56928558647121 ] } },
{ "type": "Feature", "properties": { "Category Name": "Culture", "c_id": 7, "id": 16 }, "geometry": { "type": "Point", "coordinates": [ 727.060753008947813, 1077.659485751099055 ] } },
{ "type": "Feature", "properties": { "Category Name": "Architecture", "c_id": 9, "id": 17 }, "geometry": { "type": "Point", "coordinates": [ 359.169507722385106, 1077.048672752715447 ] } },
{ "type": "Feature", "properties": { "Category Name": "Architecture", "c_id": 9, "id": 18 }, "geometry": { "type": "Point", "coordinates": [ 229.608885107498509, 1080.647578936462423 ] } },
{ "type": "Feature", "properties": { "Category Name": "Statues", "c_id": 6, "id": 19 }, "geometry": { "type": "Point", "coordinates": [ 386.161304100486518, 945.688597045955476 ] } },
{ "type": "Feature", "properties": { "Category Name": "Statues", "c_id": 6, "id": 20 }, "geometry": { "type": "Point", "coordinates": [ 827.027311609475646, 537.212745190687997 ] } },
{ "type": "Feature", "properties": { "Category Name": "Technology", "c_id": 8, "id": 21 }, "geometry": { "type": "Point", "coordinates": [ 717.598071251103875, 905.384395883933166 ] } }

]
}
