{"type":"FeatureCollection","features":[{"type":"Feature","id":"routeline_shape.1","geometry":{"type":"MultiLineString","coordinates":[[[187.15429999,-302.94439574],[187.15429999,-302.94439574]],[[926.45470511,-699.13245255],[926.37686096,-690.41390793],[924.21222682,-524.81939574],[891.74271462,-524.81939574],[890.66039755,-412.25842013],[713.16039755,-413.3407372],[713.16039755,-301.86207866],[539.98966584,-302.94439574],[539.98966584,-436.06939574],[446.91039755,-434.98707866],[446.91039755,-302.94439574],[187.15429999,-302.94439574]],[[187.15429999,-302.94439574],[188.23661706,-239.08768842],[283.4805195,-239.08768842],[283.4805195,-230.42915183],[390.62990974,-230.42915183]],[[187.15429999,-302.94439574],[101.65125121,-302.94439574],[100.56893413,-413.3407372],[176.33112925,-413.3407372],[176.33112925,-494.51451769],[104.89820242,-494.51451769],[104.89820242,-594.08768842],[236.94088535,-594.08768842],[236.94088535,-576.77061525],[294.30369023,-576.77061525]],[[444.7457634,-299.69744452],[444.7457634,-240.17000549],[575.70612925,-242.33463964]],[[478.29759267,-857.0907372],[487.70872275,-857.44976541],[497.11224786,-857.97128842],[506.50536254,-858.65515062],[515.88526441,-859.501148],[525.24915507,-860.50902815],[534.59424089,-861.67849038],[543.91773382,-863.0091858],[553.21685228,-864.5007174],[562.48882197,-866.1526402],[571.73087665,-867.96446136],[580.94025906,-869.93564033],[590.11422163,-872.06558904],[599.25002739,-874.35367202],[608.34495076,-876.79920666],[617.39627834,-879.40146334],[626.40130974,-882.1596657],[635.35735838,-885.07299085],[644.2617523,-888.14056964],[653.11183496,-891.36148687],[661.90496599,-894.73478161],[670.63852204,-898.25944746],[679.30989754,-901.93443287],[687.91650544,-905.75864144],[696.45577804,-909.73093225],[704.92516771,-913.8501202],[713.32214768,-918.11497635],[721.64421279,-922.52422834],[729.88888022,-927.07656069],[738.05369023,-931.77061525],[928.54149511,-932.85293232],[926.45470511,-699.13245255]],[[546.48356828,-752.1059811],[547.19106887,-751.70390821]],[[547.19106887,-751.70390821],[552.02519737,-748.95667088],[557.62059482,-745.90391228],[563.26807859,-742.94862298],[568.96595098,-740.09169139],[574.71249911,-737.33397635],[580.50599552,-734.67630684],[586.34469859,-732.11948181],[592.22685314,-729.66426987],[598.15069091,-727.31140909],[604.11443112,-725.06160677],[610.11628099,-722.91553923],[616.15443629,-720.8738516],[622.22708187,-718.93715765],[628.33239221,-717.10603957],[634.46853197,-715.38104781],[640.63365656,-713.76270094],[646.82591265,-712.25148544],[653.04343878,-710.84785561],[659.28436586,-709.55223341],[665.54681781,-708.3650083],[671.82891203,-707.28653719],[678.12876006,-706.31714427],[684.44446807,-705.45712097],[690.77413748,-704.70672581],[697.11586552,-704.06618438],[703.46774576,-703.53568922],[709.82786877,-703.11539981],[716.19432259,-702.80544251],[722.56519339,-702.60591047],[728.938566,-702.51686369],[735.31252451,-702.53832894],[741.68515281,-702.67029975],[748.05453521,-702.91273647],[754.418757,-703.26556621],[760.50647775,-702.51783673],[765.73073766,-702.97212021],[772.77213145,-702.51783673],[776.17925748,-702.97212021],[782.31208433,-703.19926194],[789.58061985,-702.97212021],[799.34771447,-702.51783673],[813.20336031,-702.290695],[830.46613218,-702.290695],[842.73178588,-702.290695],[856.6779322,-702.02184061],[871.24297338,-700.93849044],[885.82425613,-700.10167159],[900.41760788,-699.51162354],[915.01885266,-699.16851512],[926.45470511,-699.13245255]],[[547.19106887,-751.70390821],[548.40807107,-748.36244788],[549.93759107,-743.92429713],[551.38967291,-739.46021024],[552.76387712,-734.97153824],[554.05978779,-730.45963964],[554.88376488,-722.76841197],[555.5801992,-715.0645882],[556.14889956,-707.35028323],[556.58970984,-699.6276148],[556.90250903,-691.89870297],[557.08721125,-684.16566952],[557.1437658,-676.43063733],[557.07215716,-668.69572986],[556.87240498,-660.96307053],[556.5445641,-653.23478212],[556.08872452,-645.51298624],[555.50501138,-637.7998027],[554.79358493,-630.09734895],[553.95464045,-622.4077395],[552.98840827,-614.73308532],[551.89515364,-607.0754933]],[[554.05978779,-1187.19744452],[550.68544745,-1181.39254713],[547.21193738,-1175.64644113],[543.64028159,-1169.96082055],[539.97153308,-1164.33736158],[536.20677342,-1158.7777221],[532.34711253,-1153.28354116],[528.39368828,-1147.85643852],[524.34766619,-1142.49801416],[520.21023909,-1137.2098478],[515.98262674,-1131.99349849],[511.6660755,-1126.85050405],[507.26185794,-1121.78238072],[502.77127248,-1116.79062264],[498.19564302,-1111.87670146],[493.5363185,-1107.04206585],[488.79467256,-1102.28814114],[483.97210309,-1097.61632884],[479.07003186,-1093.02800627],[474.08990405,-1088.52452612],[469.03318788,-1084.10721609],[463.90137414,-1079.77737844],[458.69597574,-1075.53628967],[453.41852731,-1071.38520012],[448.0705847,-1067.32533358],[442.65372458,-1063.35788695],[437.16954389,-1059.48402988],[435.64693755,-1058.04482785],[434.14954445,-1056.57941103],[432.67781586,-1055.08822105],[431.23219534,-1053.57170733],[429.81311855,-1052.0303269],[428.42101317,-1050.4645443],[427.05629873,-1048.8748314],[425.71938654,-1047.26166732],[424.4106795,-1045.62553822],[423.13057202,-1043.96693718],[421.8794499,-1042.28636407],[420.65769018,-1040.58432536],[419.46566108,-1038.86133401],[418.30372185,-1037.11790928],[417.17222266,-1035.3545766],[416.07150452,-1033.57186739],[415.00189916,-1031.77031891],[413.96372892,-1029.9504741],[412.95730669,-1028.11288142],[411.98293578,-1026.25809467],[411.04090983,-1024.38667284],[410.13151275,-1022.49917992],[409.25501861,-1020.59618476],[408.41169156,-1018.67826087],[407.60178575,-1016.74598626],[406.82554528,-1014.79994328],[406.08320408,-1012.8407184],[405.37498588,-1010.8689021],[404.70110411,-1008.88508862],[404.06176186,-1006.88987584],[403.45715182,-1004.88386505],[402.8874562,-1002.86766083],[402.35284668,-1000.84187081],[401.8534844,-998.80710549],[401.38951984,-996.76397812],[400.96109283,-994.71310444],[400.56833249,-992.65510253],[400.21135719,-990.59059261],[399.8902745,-988.52019688],[399.6051812,-986.44453931],[399.3561632,-984.36424543],[399.14329555,-982.27994221],[398.96664241,-980.19225779],[398.82625702,-978.10182135],[398.72218167,-976.0092629],[398.65444775,-973.91521307],[398.62307565,-971.82030297],[398.62807484,-969.72516393],[398.66944381,-967.63042739],[398.7471701,-965.53672465],[398.86123027,-963.44468668],[399.01158995,-961.35494399],[399.19820383,-959.26812636],[399.42101567,-957.18486271],[399.67995831,-955.10578087],[399.97495372,-953.03150744],[400.305913,-950.96266754],[400.6727364,-948.89988468],[401.07531337,-946.84378051],[401.51352259,-944.7949747],[401.98723198,-942.7540847],[402.49629879,-940.7217256],[403.0405696,-938.69850988],[403.61988037,-936.68504729],[404.23405652,-934.68194464],[404.88291295,-932.68980561],[405.56625411,-930.70923059],[406.28387406,-928.74081647],[407.03555653,-926.78515647],[407.82107498,-924.84283998],[408.64019267,-922.91445237],[409.49266275,-921.00057481],[410.3782283,-919.10178408],[411.29662243,-917.21865244],[412.24756836,-915.35174741],[413.23077951,-913.50163163],[414.24595955,-911.66886267],[415.29280255,-909.8539929],[416.370993,-908.05756925],[417.48020597,-906.28013314],[418.62010717,-904.52222022],[419.79035306,-902.7843603],[420.99059097,-901.06707711],[422.22045916,-899.37088821],[423.47958699,-897.69630478],[424.76759499,-896.0438315],[426.08409499,-894.41396637],[427.42869023,-892.80720061],[431.48929903,-890.45176655],[435.5083179,-888.02604999],[439.48453048,-885.53078507],[443.41673337,-882.96672698],[447.3037365,-880.33465172],[451.14436347,-877.6353559],[454.93745192,-874.86965645],[458.68185389,-872.0383904],[462.37643612,-869.14241464],[466.02008046,-866.18260563],[469.61168417,-863.15985915],[473.15016024,-860.07509003],[476.63443778,-856.92923187],[480.06346225,-853.72323676],[483.43619588,-850.458075],[486.75161791,-847.13473478],[490.00872493,-843.7542219],[493.20653119,-840.31755947],[496.34406886,-836.82578759],[499.42038839,-833.27996306],[502.43455871,-829.68115899],[505.38566761,-826.03046457],[508.27282193,-822.32898467],[511.09514788,-818.57783955],[513.85179128,-814.77816448],[516.54191784,-810.93110943],[519.16471339,-807.0378387],[521.71938415,-803.09953059],[524.20515696,-799.11737702],[526.62127949,-795.09258319],[528.96702052,-791.02636719],[531.2416701,-786.91995967],[533.44453981,-782.77460341],[535.57496296,-778.59155301],[537.63229478,-774.37207445],[539.61591262,-770.11744477],[541.52521614,-765.82895161],[543.3596275,-761.50789289],[545.1185915,-757.15557637],[546.80157581,-752.77331927],[547.19106887,-751.70390821]],[[709.91344633,-239.08768842],[625.49271462,-239.08768842]],[[712.07808047,-300.77976159],[710.9957634,-240.17000549],[790.00490974,-240.17000549]],[[879.47770733,-932.67955215],[878.22479002,-1050.45377853]],[[888.4957634,-411.17610305],[888.4957634,-312.68524939],[859.27320242,-313.76756647],[859.27320242,-238.00537135],[952.35247072,-239.08768842],[951.27015364,-337.57854208],[889.57808047,-336.496225]],[[926.45470511,-699.13245255],[927.86843421,-699.1279944]]]},"geometry_name":"the_geom","properties":{"id":1}}],"totalFeatures":1,"numberMatched":1,"numberReturned":1,"timeStamp":"2026-03-08T15:40:27.965Z","crs":{"type":"name","properties":{"name":"urn:ogc:def:crs:EPSG::4326"}}}

