{
"type": "FeatureCollection",
"name": "routlinenew",
"crs": { "type": "name", "properties": { "name": "urn:ogc:def:crs:OGC:1.3:CRS84" } },
"features": [
{ "type": "Feature", "properties": { "fid": 1 }, "geometry": { "type": "MultiLineString", "coordinates": [ [ [ 270.506714783682128, 764.323428418797675 ], [ 91.077741175271228, 764.323428418797675 ], [ 91.077741175271228, 856.812590072617809 ], [ 172.468203430632855, 858.662373305694246 ], [ 170.618420197556475, 925.254569696444605 ], [ 105.876007039882438, 925.254569696444605 ], [ 107.725790272958818, 1019.593514583341062 ], [ 821.742118240449599, 1015.893948117188302 ], [ 821.742118240449599, 677.383616464206852 ], [ 842.089733804290063, 677.383616464206852 ], [ 845.789300270442936, 438.761579397351056 ], [ 673.759459594337613, 440.611362630427493 ] ] ] } },
{ "type": "Feature", "properties": { "fid": 2 }, "geometry": { "type": "MultiLineString", "coordinates": [ [ [ 518.37766801591988, 222.336941127412047 ], [ 511.087225209280973, 231.242000826214962 ], [ 503.649847238300026, 240.02471415826011 ], [ 496.067586942723779, 248.682656948914484 ], [ 488.342537152225134, 257.213439462285351 ], [ 480.476830108747095, 265.614707060826447 ], [ 472.47263687796891, 273.88414085525767 ], [ 464.332166750055535, 282.019458344616453 ], [ 456.057666629857351, 290.018414046266287 ], [ 447.651420416726808, 297.878800115687113 ], [ 439.115748374124337, 305.598446955876852 ], [ 430.453006489187317, 313.175223816196421 ], [ 421.665585822438175, 320.607039380492097 ], [ 412.75591184781257, 327.891842344333668 ], [ 403.726443783187619, 335.027621981208313 ], [ 394.579673911597581, 342.012408697514616 ], [ 385.318126893321903, 348.84427457620302 ], [ 375.944359069036977, 355.521333908912993 ], [ 375.186608724229643, 358.148126345688695 ], [ 374.474627475298007, 360.787691990285964 ], [ 373.808630411956756, 363.43923342925865 ], [ 373.188818732085906, 366.101949631271964 ], [ 372.615379680949786, 368.775036189092475 ], [ 372.088486494629706, 371.457685562599579 ], [ 371.608298347689697, 374.149087322743696 ], [ 371.174960305089428, 376.848428396377074 ], [ 370.788603278360483, 379.554893311883234 ], [ 370.44934398605767, 382.267664445531409 ], [ 370.157284918498533, 384.985922268480692 ], [ 369.912514306800574, 387.708845594360014 ], [ 369.715106096227146, 390.435611827348566 ], [ 369.565119923848215, 393.165397210682556 ], [ 369.462601100524239, 395.897377075511884 ], [ 369.407580597217361, 398.630726090033136 ], [ 369.400075035635496, 401.364618508822502 ], [ 369.440086683210666, 404.098228422293516 ], [ 369.527603452414155, 406.83073000620459 ], [ 369.662598904408014, 409.561297771140971 ], [ 369.845032257032187, 412.289106811894897 ], [ 370.074848397125038, 415.013333056669978 ], [ 370.351977897173015, 417.733153516033383 ], [ 370.676337036284451, 420.447746531541156 ], [ 371.047827825481932, 423.156292023961385 ], [ 371.466338037304808, 425.857971741020492 ], [ 371.931741239712949, 428.551969504597309 ], [ 372.443896834281929, 431.237471457290781 ], [ 373.002650098678032, 433.913666308286338 ], [ 373.607832233399677, 436.579745578447387 ], [ 374.259260412772051, 439.234903844556584 ], [ 374.956737840178448, 441.878338982634887 ], [ 375.700053807512916, 444.509252410263116 ], [ 376.488983758834934, 447.126849327833781 ], [ 377.323289358208058, 449.730338958660695 ], [ 378.202718561701204, 452.318934787872365 ], [ 379.127005693531089, 454.891854800018564 ], [ 380.095871526322924, 457.44832171531732 ], [ 381.109023365465305, 459.98756322447133 ], [ 382.166155137533167, 462.508812221982964 ], [ 383.266947482752585, 465.011307037896643 ], [ 384.411067851479572, 467.494291667899915 ], [ 385.59817060466338, 469.957016001712418 ], [ 386.827897118263991, 472.398736049694207 ], [ 388.099875891592887, 474.818714167605492 ], [ 389.413722659542941, 477.216219279448978 ], [ 390.769040508675744, 479.590527098328153 ], [ 392.165419997128538, 481.940920345254483 ], [ 393.602439278307088, 484.266688965837716 ], [ 395.079664228325555, 486.567130344793384 ], [ 396.596648577155577, 488.84154951820301 ], [ 398.152934043444247, 491.089259383463059 ], [ 399.748050472961268, 493.309580906858571 ], [ 401.381515980632685, 495.501843328699579 ], [ 403.052837096118253, 497.665384365957891 ], [ 404.761508912889155, 499.799550412342626 ], [ 406.507015240760381, 501.903696735755034 ], [ 408.288828761831837, 503.977187673062417 ], [ 410.106411189791174, 506.019396822131625 ], [ 411.959213432530419, 508.0297072310658 ], [ 413.846675758026549, 510.007511584585359 ], [ 415.768227963436971, 511.952212387498491 ], [ 417.723289547357808, 513.863222145203963 ], [ 419.711269885193417, 515.73996354117412 ], [ 421.731568407584348, 517.581869611361526 ], [ 423.783574781839548, 519.388383915480063 ], [ 425.866669096317878, 521.158960705104391 ], [ 427.980222047703705, 522.893065088541789 ], [ 430.123595131119544, 524.590173192422412 ], [ 432.296140833018455, 526.249772319961721 ], [ 434.497202826798173, 527.871361105846404 ], [ 436.726116171077479, 529.454449667696963 ], [ 438.982207510575279, 530.998559754061262 ], [ 441.264795279531086, 532.503224888894238 ], [ 443.573189907606547, 533.967990512480696 ], [ 445.906694028204811, 535.39241411875787 ], [ 448.264602689144738, 536.776065388996585 ], [ 450.646203565627616, 538.118526321800346 ], [ 453.050777175430483, 539.419391359384235 ], [ 455.477597096261775, 540.678267510093747 ], [ 457.925930185213758, 541.894774467127377 ], [ 460.395036800245407, 543.068544723427863 ], [ 462.884171023627914, 544.19922368270602 ], [ 465.832807640486863, 547.983510623906454 ], [ 468.846221423240138, 551.716421408474389 ], [ 471.923517381331635, 555.396847353653243 ], [ 475.063781551058298, 559.023695364800346 ], [ 478.266081267019217, 562.595888260038237 ], [ 481.529465439119065, 566.11236509017931 ], [ 484.852964835043906, 569.572081453830947 ], [ 488.235592368125424, 572.974009807584139 ], [ 491.676343390507952, 576.317139771196935 ], [ 495.174195991530951, 579.600478427678809 ], [ 498.728111301238641, 582.823050618189882 ], [ 502.337033798927109, 585.983899231665418 ], [ 505.999891626635758, 589.082085489078622 ], [ 509.715596907491886, 592.116689222261925 ], [ 513.4830460688122, 595.0868091471973 ], [ 517.301120169866635, 597.991563131700673 ], [ 521.168685234206123, 600.830088457416878 ], [ 525.084592586455983, 603.601542076048418 ], [ 529.047679193475346, 606.305100859743789 ], [ 533.056768009780058, 608.939961845566586 ], [ 537.110668327128337, 611.505342473979226 ], [ 541.208176128163359, 614.000480821263409 ], [ 545.348074444009626, 616.424635825813539 ], [ 549.529133715714465, 618.777087508233876 ], [ 553.750112159430728, 621.057137185173929 ], [ 558.009756135228599, 623.264107676838876 ], [ 562.306800519430112, 625.397343508113408 ], [ 566.639969080353012, 627.456211103239411 ], [ 571.007974857354952, 629.440098973989393 ], [ 575.409520543063195, 631.348417901279731 ], [ 579.843298868678062, 633.180601110170073 ], [ 584.307992992234517, 634.93610443819648 ], [ 588.802276889707059, 636.614406496989773 ], [ 593.324815748842298, 638.215008827127917 ], [ 597.874266365600306, 639.737436046180164 ], [ 602.449277543090034, 641.18123598989655 ], [ 607.048490492877136, 642.54597984650195 ], [ 611.670539238547349, 643.831262284053764 ], [ 616.314051021404907, 645.036701570826494 ], [ 620.977646708184011, 646.161939688686743 ], [ 625.659941200655567, 647.206642439426105 ], [ 630.359543847003351, 648.17049954401773 ], [ 635.075058854851591, 649.053224734770538 ], [ 639.805085705817646, 649.854555840351622 ], [ 644.548219571469417, 650.574254863650935 ], [ 649.303051730562743, 651.212108052467329 ], [ 654.068169987434203, 651.767925962993559 ], [ 658.842159091426652, 652.241543516081492 ], [ 663.623601157221742, 652.632820046270695 ], [ 668.411076085954846, 652.941639343566635 ], [ 673.203161986988107, 653.167909687955216 ], [ 677.998435600214293, 653.311563876644072 ], [ 682.795472718768792, 653.372559244021431 ], [ 687.592848612022067, 653.350877674328444 ], [ 692.389138448727522, 653.246525607039075 ], [ 697.182917720199839, 653.059534034948229 ], [ 701.972762663397361, 652.789958494966186 ], [ 706.757250683782331, 652.437879051624122 ], [ 711.534960777835067, 652.003400273295256 ], [ 716.304473955094863, 651.486651201137192 ], [ 782.890064314180563, 650.086125304767847 ], [ 849.48886673659581, 649.636867968060869 ] ] ] } },
{ "type": "Feature", "properties": { "fid": 3 }, "geometry": { "type": "MultiLineString", "coordinates": [ [ [ 403.958477899629884, 1013.338613594451886 ], [ 403.226455861181535, 1079.220597054805921 ], [ 534.990422781889379, 1077.756552977908996 ] ] ] } },
{ "type": "Feature", "properties": { "fid": 4 }, "geometry": { "type": "MultiLineString", "coordinates": [ [ [ 595.573228031910958, 1013.151848009912328 ], [ 597.266316419575674, 1078.335750935005308 ], [ 728.480666463594275, 1078.335750935005308 ] ] ] } },
{ "type": "Feature", "properties": { "fid": 5 }, "geometry": { "type": "MultiLineString", "coordinates": [ [ [ 773.265563551791388, 1014.495792867768841 ], [ 773.265563551791388, 1077.95786673899147 ], [ 871.984345129248823, 1076.547598430742028 ], [ 871.984345129248823, 899.558925745443503 ] ] ] } },
{ "type": "Feature", "properties": { "fid": 6 }, "geometry": { "type": "MultiLineString", "coordinates": [ [ [ 823.862418641870363, 808.16864418854675 ], [ 603.980589025448239, 810.532964937110478 ], [ 603.360195088601586, 834.034227505676654 ], [ 614.996124723018283, 834.034227505676654 ], [ 614.349684187772937, 951.686404920335008 ], [ 505.747674266549836, 949.100642779353507 ], [ 504.202893411586388, 890.988438428548534 ], [ 388.586939374960423, 891.802635287961493 ], [ 387.77274251554752, 1022.074132794018851 ] ] ] } },
{ "type": "Feature", "properties": { "fid": 7 }, "geometry": { "type": "MultiLineString", "coordinates": [ [ [ 508.273877708650673, 1023.702526512844656 ], [ 503.388696552173542, 931.698281399191501 ] ] ] } },
{ "type": "Feature", "properties": { "fid": 8 }, "geometry": { "type": "MultiLineString", "coordinates": [ [ [ 171.714320330613077, 1015.6687008465492 ], [ 171.714320330613077, 1083.033317452856409 ], [ 358.169955580213582, 1081.830377870601069 ], [ 358.169955580213582, 1060.177465390002226 ] ] ] } }
]
}
