{
  "type": "FeatureCollection",
  "name": "roads_connected_network_tol_8",
  "crs": {
    "type": "name",
    "properties": {
      "name": "urn:ogc:def:crs:OGC:1.3:CRS84"
    }
  },
  "features": [
    {
      "type": "Feature",
      "properties": {
        "name": "connected_network",
        "snap_tolerance": 8.0,
        "original_line_count": 8,
        "connector_count": 9,
        "note": "One feature containing the noded/merged road network as MultiLineString. A branched network cannot safely be represented as one simple LineString."
      },
      "geometry": {
        "type": "MultiLineString",
        "coordinates": [
          [
            [
              171.71432033061308,
              1019.2619677954775
            ],
            [
              171.71432033061308,
              1083.0333174528564
            ],
            [
              358.1699555802136,
              1081.830377870601
            ],
            [
              358.1699555802136,
              1060.1774653900022
            ]
          ],
          [
            [
              270.5067147836821,
              764.3234284187977
            ],
            [
              91.07774117527123,
              764.3234284187977
            ],
            [
              91.07774117527123,
              856.8125900726178
            ],
            [
              172.46820343063285,
              858.6623733056942
            ],
            [
              170.61842019755647,
              925.2545696964446
            ],
            [
              105.87600703988244,
              925.2545696964446
            ],
            [
              107.72579027295882,
              1019.5935145833411
            ],
            [
              171.71432033061308,
              1019.2619677954775
            ]
          ],
          [
            [
              171.71432033061308,
              1019.2619677954775
            ],
            [
              171.71432033061308,
              1015.6687008465492
            ],
            [
              171.7329377942679,
              1019.2618713319354
            ]
          ],
          [
            [
              171.71432033061308,
              1019.2619677954775
            ],
            [
              171.7329377942679,
              1019.2618713319354
            ]
          ],
          [
            [
              171.7329377942679,
              1019.2618713319354
            ],
            [
              387.7523718775098,
              1018.1425996527475
            ]
          ],
          [
            [
              387.79731605312656,
              1018.1423667813713
            ],
            [
              387.7727425155475,
              1022.0741327940189
            ],
            [
              387.7523718775098,
              1018.1425996527475
            ]
          ],
          [
            [
              387.7523718775098,
              1018.1425996527475
            ],
            [
              387.79731605312656,
              1018.1423667813713
            ]
          ],
          [
            [
              505.283732936319,
              931.6479061646191
            ],
            [
              504.2028934115864,
              890.9884384285485
            ],
            [
              388.5869393749604,
              891.8026352879615
            ],
            [
              387.79731605312656,
              1018.1423667813713
            ]
          ],
          [
            [
              387.79731605312656,
              1018.1423667813713
            ],
            [
              403.90603025133527,
              1018.058901940966
            ]
          ],
          [
            [
              403.90603025133527,
              1018.058901940966
            ],
            [
              403.22645586118153,
              1079.220597054806
            ],
            [
              534.9904227818894,
              1077.756552977909
            ]
          ],
          [
            [
              403.90603025133527,
              1018.058901940966
            ],
            [
              403.9584778996299,
              1013.3386135944519
            ],
            [
              403.98293328763606,
              1018.058503479638
            ]
          ],
          [
            [
              403.90603025133527,
              1018.058901940966
            ],
            [
              507.9455933016381,
              1017.5198368474412
            ]
          ],
          [
            [
              821.7421182404496,
              808.1914431175943
            ],
            [
              603.9805890254482,
              810.5329649371105
            ],
            [
              603.3601950886016,
              834.0342275056767
            ],
            [
              614.9961247230183,
              834.0342275056767
            ],
            [
              614.3496841877729,
              951.686404920335
            ],
            [
              505.74767426654984,
              949.1006427793535
            ],
            [
              505.283732936319,
              931.6479061646191
            ]
          ],
          [
            [
              507.9455933016381,
              1017.5198368474412
            ],
            [
              503.38869655217354,
              931.6982813991915
            ],
            [
              505.283732936319,
              931.6479061646191
            ]
          ],
          [
            [
              507.9455933016381,
              1017.5198368474412
            ],
            [
              508.2738777086507,
              1023.7025265128447
            ],
            [
              508.2418350941586,
              1017.5183019158737
            ]
          ],
          [
            [
              507.9455933016381,
              1017.5198368474412
            ],
            [
              595.6748756415338,
              1017.0652809803951
            ]
          ],
          [
            [
              518.3776680159199,
              222.33694112741205
            ],
            [
              511.087225209281,
              231.24200082621496
            ],
            [
              503.6498472383,
              240.0247141582601
            ],
            [
              496.0675869427238,
              248.68265694891448
            ],
            [
              488.34253715222513,
              257.21343946228535
            ],
            [
              480.4768301087471,
              265.61470706082645
            ],
            [
              472.4726368779689,
              273.88414085525767
            ],
            [
              464.33216675005553,
              282.01945834461645
            ],
            [
              456.05766662985735,
              290.0184140462663
            ],
            [
              447.6514204167268,
              297.8788001156871
            ],
            [
              439.11574837412434,
              305.59844695587685
            ],
            [
              430.4530064891873,
              313.1752238161964
            ],
            [
              421.6655858224382,
              320.6070393804921
            ],
            [
              412.75591184781257,
              327.89184234433367
            ],
            [
              403.7264437831876,
              335.0276219812083
            ],
            [
              394.5796739115976,
              342.0124086975146
            ],
            [
              385.3181268933219,
              348.844274576203
            ],
            [
              375.944359069037,
              355.521333908913
            ],
            [
              375.18660872422964,
              358.1481263456887
            ],
            [
              374.474627475298,
              360.78769199028596
            ],
            [
              373.80863041195676,
              363.43923342925865
            ],
            [
              373.1888187320859,
              366.10194963127196
            ],
            [
              372.6153796809498,
              368.7750361890925
            ],
            [
              372.0884864946297,
              371.4576855625996
            ],
            [
              371.6082983476897,
              374.1490873227437
            ],
            [
              371.1749603050894,
              376.8484283963771
            ],
            [
              370.7886032783605,
              379.55489331188323
            ],
            [
              370.44934398605767,
              382.2676644455314
            ],
            [
              370.15728491849853,
              384.9859222684807
            ],
            [
              369.9125143068006,
              387.70884559436
            ],
            [
              369.71510609622715,
              390.43561182734857
            ],
            [
              369.5651199238482,
              393.16539721068256
            ],
            [
              369.46260110052424,
              395.8973770755119
            ],
            [
              369.40758059721736,
              398.63072609003314
            ],
            [
              369.4000750356355,
              401.3646185088225
            ],
            [
              369.44008668321067,
              404.0982284222935
            ],
            [
              369.52760345241416,
              406.8307300062046
            ],
            [
              369.662598904408,
              409.56129777114097
            ],
            [
              369.8450322570322,
              412.2891068118949
            ],
            [
              370.07484839712504,
              415.01333305667
            ],
            [
              370.351977897173,
              417.7331535160334
            ],
            [
              370.67633703628445,
              420.44774653154116
            ],
            [
              371.04782782548193,
              423.1562920239614
            ],
            [
              371.4663380373048,
              425.8579717410205
            ],
            [
              371.93174123971295,
              428.5519695045973
            ],
            [
              372.44389683428193,
              431.2374714572908
            ],
            [
              373.00265009867803,
              433.91366630828634
            ],
            [
              373.6078322333997,
              436.5797455784474
            ],
            [
              374.25926041277205,
              439.2349038445566
            ],
            [
              374.95673784017845,
              441.8783389826349
            ],
            [
              375.7000538075129,
              444.5092524102631
            ],
            [
              376.48898375883493,
              447.1268493278338
            ],
            [
              377.32328935820806,
              449.7303389586607
            ],
            [
              378.2027185617012,
              452.31893478787237
            ],
            [
              379.1270056935311,
              454.89185480001856
            ],
            [
              380.0958715263229,
              457.4483217153173
            ],
            [
              381.1090233654653,
              459.98756322447133
            ],
            [
              382.16615513753317,
              462.50881222198296
            ],
            [
              383.2669474827526,
              465.01130703789664
            ],
            [
              384.4110678514796,
              467.4942916678999
            ],
            [
              385.5981706046634,
              469.9570160017124
            ],
            [
              386.827897118264,
              472.3987360496942
            ],
            [
              388.0998758915929,
              474.8187141676055
            ],
            [
              389.41372265954294,
              477.216219279449
            ],
            [
              390.76904050867574,
              479.59052709832815
            ],
            [
              392.16541999712854,
              481.9409203452545
            ],
            [
              393.6024392783071,
              484.2666889658377
            ],
            [
              395.07966422832556,
              486.5671303447934
            ],
            [
              396.5966485771556,
              488.841549518203
            ],
            [
              398.15293404344425,
              491.08925938346306
            ],
            [
              399.74805047296127,
              493.30958090685857
            ],
            [
              401.3815159806327,
              495.5018433286996
            ],
            [
              403.05283709611825,
              497.6653843659579
            ],
            [
              404.76150891288916,
              499.7995504123426
            ],
            [
              406.5070152407604,
              501.90369673575503
            ],
            [
              408.28882876183184,
              503.9771876730624
            ],
            [
              410.1064111897912,
              506.0193968221316
            ],
            [
              411.9592134325304,
              508.0297072310658
            ],
            [
              413.84667575802655,
              510.00751158458536
            ],
            [
              415.76822796343697,
              511.9522123874985
            ],
            [
              417.7232895473578,
              513.863222145204
            ],
            [
              419.7112698851934,
              515.7399635411741
            ],
            [
              421.73156840758435,
              517.5818696113615
            ],
            [
              423.78357478183955,
              519.3883839154801
            ],
            [
              425.8666690963179,
              521.1589607051044
            ],
            [
              427.9802220477037,
              522.8930650885418
            ],
            [
              430.12359513111954,
              524.5901731924224
            ],
            [
              432.29614083301846,
              526.2497723199617
            ],
            [
              434.4972028267982,
              527.8713611058464
            ],
            [
              436.7261161710775,
              529.454449667697
            ],
            [
              438.9822075105753,
              530.9985597540613
            ],
            [
              441.2647952795311,
              532.5032248888942
            ],
            [
              443.57318990760655,
              533.9679905124807
            ],
            [
              445.9066940282048,
              535.3924141187579
            ],
            [
              448.26460268914474,
              536.7760653889966
            ],
            [
              450.6462035656276,
              538.1185263218003
            ],
            [
              453.0507771754305,
              539.4193913593842
            ],
            [
              455.4775970962618,
              540.6782675100937
            ],
            [
              457.92593018521376,
              541.8947744671274
            ],
            [
              460.3950368002454,
              543.0685447234279
            ],
            [
              462.8841710236279,
              544.199223682706
            ],
            [
              465.83280764048686,
              547.9835106239065
            ],
            [
              468.84622142324014,
              551.7164214084744
            ],
            [
              471.92351738133164,
              555.3968473536532
            ],
            [
              475.0637815510583,
              559.0236953648003
            ],
            [
              478.2660812670192,
              562.5958882600382
            ],
            [
              481.52946543911906,
              566.1123650901793
            ],
            [
              484.8529648350439,
              569.572081453831
            ],
            [
              488.2355923681254,
              572.9740098075841
            ],
            [
              491.67634339050795,
              576.3171397711969
            ],
            [
              495.17419599153095,
              579.6004784276788
            ],
            [
              498.72811130123864,
              582.8230506181899
            ],
            [
              502.3370337989271,
              585.9838992316654
            ],
            [
              505.99989162663576,
              589.0820854890786
            ],
            [
              509.7155969074919,
              592.1166892222619
            ],
            [
              513.4830460688122,
              595.0868091471973
            ],
            [
              517.3011201698666,
              597.9915631317007
            ],
            [
              521.1686852342061,
              600.8300884574169
            ],
            [
              525.084592586456,
              603.6015420760484
            ],
            [
              529.0476791934753,
              606.3051008597438
            ],
            [
              533.0567680097801,
              608.9399618455666
            ],
            [
              537.1106683271283,
              611.5053424739792
            ],
            [
              541.2081761281634,
              614.0004808212634
            ],
            [
              545.3480744440096,
              616.4246358258135
            ],
            [
              549.5291337157145,
              618.7770875082339
            ],
            [
              553.7501121594307,
              621.0571371851739
            ],
            [
              558.0097561352286,
              623.2641076768389
            ],
            [
              562.3068005194301,
              625.3973435081134
            ],
            [
              566.639969080353,
              627.4562111032394
            ],
            [
              571.007974857355,
              629.4400989739894
            ],
            [
              575.4095205430632,
              631.3484179012797
            ],
            [
              579.8432988686781,
              633.1806011101701
            ],
            [
              584.3079929922345,
              634.9361044381965
            ],
            [
              588.8022768897071,
              636.6144064969898
            ],
            [
              593.3248157488423,
              638.2150088271279
            ],
            [
              597.8742663656003,
              639.7374360461802
            ],
            [
              602.44927754309,
              641.1812359898965
            ],
            [
              607.0484904928771,
              642.545979846502
            ],
            [
              611.6705392385473,
              643.8312622840538
            ],
            [
              616.3140510214049,
              645.0367015708265
            ],
            [
              620.977646708184,
              646.1619396886867
            ],
            [
              625.6599412006556,
              647.2066424394261
            ],
            [
              630.3595438470034,
              648.1704995440177
            ],
            [
              635.0750588548516,
              649.0532247347705
            ],
            [
              639.8050857058176,
              649.8545558403516
            ],
            [
              644.5482195714694,
              650.5742548636509
            ],
            [
              649.3030517305627,
              651.2121080524673
            ],
            [
              654.0681699874342,
              651.7679259629936
            ],
            [
              658.8421590914267,
              652.2415435160815
            ],
            [
              663.6236011572217,
              652.6328200462707
            ],
            [
              668.4110760859548,
              652.9416393435666
            ],
            [
              673.2031619869881,
              653.1679096879552
            ],
            [
              677.9984356002143,
              653.3115638766441
            ],
            [
              682.7954727187688,
              653.3725592440214
            ],
            [
              687.5928486120221,
              653.3508776743284
            ],
            [
              692.3891384487275,
              653.2465256070391
            ],
            [
              697.1829177201998,
              653.0595340349482
            ],
            [
              701.9727626633974,
              652.7899584949662
            ],
            [
              706.7572506837823,
              652.4378790516241
            ],
            [
              711.5349607778351,
              652.0034002732953
            ],
            [
              716.3044739550949,
              651.4866512011372
            ],
            [
              782.8900643141806,
              650.0861253047678
            ],
            [
              842.519187028164,
              649.6838835243415
            ]
          ],
          [
            [
              595.59350707113,
              1017.0657025792054
            ],
            [
              595.573228031911,
              1013.1518480099123
            ],
            [
              595.6748756415338,
              1017.0652809803951
            ]
          ],
          [
            [
              595.6748756415338,
              1017.0652809803951
            ],
            [
              597.2663164195757,
              1078.3357509350053
            ],
            [
              728.4806664635943,
              1078.3357509350053
            ]
          ],
          [
            [
              595.6748756415338,
              1017.0652809803951
            ],
            [
              773.2655635517914,
              1016.1451219756788
            ]
          ],
          [
            [
              842.519187028164,
              649.6838835243415
            ],
            [
              845.7893002704429,
              438.76157939735106
            ],
            [
              673.7594595943376,
              440.6113626304275
            ]
          ],
          [
            [
              773.2655635517914,
              1016.1451219756788
            ],
            [
              773.2655635517914,
              1077.9578667389915
            ],
            [
              871.9843451292488,
              1076.547598430742
            ],
            [
              871.9843451292488,
              899.5589257454435
            ]
          ],
          [
            [
              773.2655635517914,
              1016.1451219756788
            ],
            [
              773.2655635517914,
              1014.4957928677688
            ],
            [
              773.2741090690486,
              1016.1450776983872
            ]
          ],
          [
            [
              773.2655635517914,
              1016.1451219756788
            ],
            [
              821.7421182404496,
              1015.8939481171883
            ],
            [
              821.7421182404496,
              808.1914431175943
            ]
          ],
          [
            [
              821.7421182404496,
              808.1686441885468
            ],
            [
              823.8624186418704,
              808.1686441885468
            ],
            [
              821.7421182404496,
              808.1914431175943
            ]
          ],
          [
            [
              821.7421182404496,
              808.1914431175943
            ],
            [
              821.7421182404496,
              808.1686441885468
            ]
          ],
          [
            [
              821.7421182404496,
              808.1686441885468
            ],
            [
              821.7421182404496,
              677.3836164642069
            ],
            [
              842.0897338042901,
              677.3836164642069
            ],
            [
              842.519187028164,
              649.6838835243415
            ]
          ],
          [
            [
              842.519187028164,
              649.6838835243415
            ],
            [
              849.4888667365958,
              649.6368679680609
            ],
            [
              842.5215906768485,
              649.5288481841887
            ]
          ]
        ]
      }
    }
  ]
}